{
  "type": "FeatureCollection",
  "features": [
    {
      "type": "Feature",
      "properties": {
        "norad_id": 66496,
        "name": "STARLINK-35909",
        "group": "last-30-days",
        "lat": -34.36803732986289,
        "lon": 67.72792707714775,
        "alt_km": 416.62082679280775,
        "timestamp": "2025-12-14T11:29:48.797113+00:00",
        "meta_object_name": "STARLINK-35909",
        "meta_object_id": "2025-263M",
        "meta_epoch": "2025-12-13T15:38:31.573248",
        "meta_mean_motion": 15.50661019,
        "meta_eccentricity": 9.793e-05,
        "meta_inclination": 42.9995,
        "meta_ra_of_asc_node": 119.786,
        "meta_arg_of_pericenter": 258.4023,
        "meta_mean_anomaly": 101.6727,
        "meta_ephemeris_type": 0,
        "meta_classification_type": "U",
        "meta_norad_cat_id": 66496,
        "meta_element_set_no": 999,
        "meta_rev_at_epoch": 570,
        "meta_bstar": 0.0022566857,
        "meta_mean_motion_dot": 0.00134743,
        "meta_mean_motion_ddot": 0,
        "tle_line1": "1 66496U 25263M   25347.65175432  .00134743  00000+0  22567-2 0  9998",
        "tle_line2": "2 66496  42.9995 119.7860 0000979 258.4023 101.6727 15.50661019  5702"
      },
      "geometry": {
        "type": "Point",
        "coordinates": [
          67.72792707714775,
          -34.36803732986289
        ]
      }
    },
    {
      "type": "Feature",
      "properties": {
        "norad_id": 66497,
        "name": "STARLINK-35899",
        "group": "last-30-days",
        "lat": -33.60443644765612,
        "lon": 69.45537027088298,
        "alt_km": 416.0180334163697,
        "timestamp": "2025-12-14T11:29:48.797123+00:00",
        "meta_object_name": "STARLINK-35899",
        "meta_object_id": "2025-263N",
        "meta_epoch": "2025-12-13T15:38:01.925088",
        "meta_mean_motion": 15.50593365,
        "meta_eccentricity": 0.00023919,
        "meta_inclination": 43.0019,
        "meta_ra_of_asc_node": 119.7827,
        "meta_arg_of_pericenter": 270.7651,
        "meta_mean_anomaly": 89.2936,
        "meta_ephemeris_type": 0,
        "meta_classification_type": "U",
        "meta_norad_cat_id": 66497,
        "meta_element_set_no": 999,
        "meta_rev_at_epoch": 570,
        "meta_bstar": 0.0017348399,
        "meta_mean_motion_dot": 0.00102837,
        "meta_mean_motion_ddot": 0,
        "tle_line1": "1 66497U 25263N   25347.65141117  .00102837  00000+0  17348-2 0  9992",
        "tle_line2": "2 66497  43.0019 119.7827 0002391 270.7651  89.2936 15.50593365  5700"
      },
      "geometry": {
        "type": "Point",
        "coordinates": [
          69.45537027088298,
          -33.60443644765612
        ]
      }
    },
    {
      "type": "Feature",
      "properties": {
        "norad_id": 66498,
        "name": "STARLINK-35907",
        "group": "last-30-days",
        "lat": 13.770700684631073,
        "lon": -79.95202513060717,
        "alt_km": 442.2055170527701,
        "timestamp": "2025-12-14T11:29:48.797133+00:00",
        "meta_object_name": "STARLINK-35907",
        "meta_object_id": "2025-263P",
        "meta_epoch": "2025-12-13T14:00:03.000384",
        "meta_mean_motion": 15.40672155,
        "meta_eccentricity": 0.00014199,
        "meta_inclination": 42.9997,
        "meta_ra_of_asc_node": 120.4591,
        "meta_arg_of_pericenter": 267.1433,
        "meta_mean_anomaly": 318.6354,
        "meta_ephemeris_type": 0,
        "meta_classification_type": "U",
        "meta_norad_cat_id": 66498,
        "meta_element_set_no": 999,
        "meta_rev_at_epoch": 577,
        "meta_bstar": 0.00051742349,
        "meta_mean_motion_dot": 0.00021351,
        "meta_mean_motion_ddot": 0,
        "tle_line1": "1 66498U 25263P   25347.58336806  .00021351  00000+0  51742-3 0  9994",
        "tle_line2": "2 66498  42.9997 120.4591 0001419 267.1433 318.6354 15.40672155  5773"
      },
      "geometry": {
        "type": "Point",
        "coordinates": [
          -79.95202513060717,
          13.770700684631073
        ]
      }
    },
    {
      "type": "Feature",
      "properties": {
        "norad_id": 66499,
        "name": "STARLINK-35816",
        "group": "last-30-days",
        "lat": -11.41123484164655,
        "lon": -52.28395215760862,
        "alt_km": 445.14246883599935,
        "timestamp": "2025-12-14T11:29:48.797144+00:00",
        "meta_object_name": "STARLINK-35816",
        "meta_object_id": "2025-263Q",
        "meta_epoch": "2025-12-13T14:00:03.000384",
        "meta_mean_motion": 15.40694407,
        "meta_eccentricity": 0.0001477,
        "meta_inclination": 42.9996,
        "meta_ra_of_asc_node": 120.3693,
        "meta_arg_of_pericenter": 289.1495,
        "meta_mean_anomaly": 333.8226,
        "meta_ephemeris_type": 0,
        "meta_classification_type": "U",
        "meta_norad_cat_id": 66499,
        "meta_element_set_no": 999,
        "meta_rev_at_epoch": 577,
        "meta_bstar": 0.00082964204,
        "meta_mean_motion_dot": 0.00034503,
        "meta_mean_motion_ddot": 0,
        "tle_line1": "1 66499U 25263Q   25347.58336806  .00034503  00000+0  82964-3 0  9998",
        "tle_line2": "2 66499  42.9996 120.3693 0001477 289.1495 333.8226 15.40694407  5772"
      },
      "geometry": {
        "type": "Point",
        "coordinates": [
          -52.28395215760862,
          -11.41123484164655
        ]
      }
    },
    {
      "type": "Feature",
      "properties": {
        "norad_id": 66500,
        "name": "STARLINK-35894",
        "group": "last-30-days",
        "lat": 37.33570484132575,
        "lon": -119.54004125565078,
        "alt_km": 457.0959231136676,
        "timestamp": "2025-12-14T11:29:48.797154+00:00",
        "meta_object_name": "STARLINK-35894",
        "meta_object_id": "2025-263R",
        "meta_epoch": "2025-12-13T14:00:03.000384",
        "meta_mean_motion": 15.38005187,
        "meta_eccentricity": 9.649e-05,
        "meta_inclination": 42.9998,
        "meta_ra_of_asc_node": 120.5291,
        "meta_arg_of_pericenter": 269.6982,
        "meta_mean_anomaly": 287.9563,
        "meta_ephemeris_type": 0,
        "meta_classification_type": "U",
        "meta_norad_cat_id": 66500,
        "meta_element_set_no": 999,
        "meta_rev_at_epoch": 577,
        "meta_bstar": -0.051994777,
        "meta_mean_motion_dot": -0.01791112,
        "meta_mean_motion_ddot": 0,
        "tle_line1": "1 66500U 25263R   25347.58336806 -.01791112  00000+0 -51995-1 0  9998",
        "tle_line2": "2 66500  42.9998 120.5291 0000964 269.6982 287.9563 15.38005187  5778"
      },
      "geometry": {
        "type": "Point",
        "coordinates": [
          -119.54004125565078,
          37.33570484132575
        ]
      }
    },
    {
      "type": "Feature",
      "properties": {
        "norad_id": 66501,
        "name": "STARLINK-35897",
        "group": "last-30-days",
        "lat": -26.9922966509898,
        "lon": -31.7195003486499,
        "alt_km": 446.0028006785178,
        "timestamp": "2025-12-14T11:29:48.797164+00:00",
        "meta_object_name": "STARLINK-35897",
        "meta_object_id": "2025-263S",
        "meta_epoch": "2025-12-13T14:00:03.000384",
        "meta_mean_motion": 15.40671605,
        "meta_eccentricity": 0.00013291,
        "meta_inclination": 42.9995,
        "meta_ra_of_asc_node": 120.308,
        "meta_arg_of_pericenter": 271.2496,
        "meta_mean_anomaly": 16.7162,
        "meta_ephemeris_type": 0,
        "meta_classification_type": "U",
        "meta_norad_cat_id": 66501,
        "meta_element_set_no": 999,
        "meta_rev_at_epoch": 577,
        "meta_bstar": 0.00051873515,
        "meta_mean_motion_dot": 0.00021406,
        "meta_mean_motion_ddot": 0,
        "tle_line1": "1 66501U 25263S   25347.58336806  .00021406  00000+0  51874-3 0  9996",
        "tle_line2": "2 66501  42.9995 120.3080 0001329 271.2496  16.7162 15.40671605  5775"
      },
      "geometry": {
        "type": "Point",
        "coordinates": [
          -31.7195003486499,
          -26.9922966509898
        ]
      }
    },
    {
      "type": "Feature",
      "properties": {
        "norad_id": 66502,
        "name": "STARLINK-35922",
        "group": "last-30-days",
        "lat": -26.345559233975397,
        "lon": 82.80508682872065,
        "alt_km": 415.8817910174048,
        "timestamp": "2025-12-14T11:29:48.797175+00:00",
        "meta_object_name": "STARLINK-35922",
        "meta_object_id": "2025-263T",
        "meta_epoch": "2025-12-13T15:34:34.500288",
        "meta_mean_motion": 15.50680267,
        "meta_eccentricity": 0.00018673,
        "meta_inclination": 43.0016,
        "meta_ra_of_asc_node": 119.7632,
        "meta_arg_of_pericenter": 265.8593,
        "meta_mean_anomaly": 94.2054,
        "meta_ephemeris_type": 0,
        "meta_classification_type": "U",
        "meta_norad_cat_id": 66502,
        "meta_element_set_no": 999,
        "meta_rev_at_epoch": 570,
        "meta_bstar": 0.001643676,
        "meta_mean_motion_dot": 0.00097649,
        "meta_mean_motion_ddot": 0,
        "tle_line1": "1 66502U 25263T   25347.64901042  .00097649  00000+0  16437-2 0  9991",
        "tle_line2": "2 66502  43.0016 119.7632 0001867 265.8593  94.2054 15.50680267  5700"
      },
      "geometry": {
        "type": "Point",
        "coordinates": [
          82.80508682872065,
          -26.345559233975397
        ]
      }
    }
  ]
}